[{"OBJECT_NAME":"LEMUR-2-GREENBERG","OBJECT_ID":"2017-042N","EPOCH":"2026-03-09T11:05:17.256192","MEAN_MOTION":15.27971352,"ECCENTRICITY":0.00091572,"INCLINATION":97.3781,"RA_OF_ASC_NODE":249.8007,"ARG_OF_PERICENTER":4.0119,"MEAN_ANOMALY":356.1192,"EPHEMERIS_TYPE":0,"CLASSIFICATION_TYPE":"U","NORAD_CAT_ID":42837,"ELEMENT_SET_NO":999,"REV_AT_EPOCH":47314,"BSTAR":0.00072539172,"MEAN_MOTION_DOT":0.00019778,"MEAN_MOTION_DDOT":0},{"OBJECT_NAME":"STARLINK-32761","OBJECT_ID":"2025-014Q","EPOCH":"2026-03-09T06:14:54.326400","MEAN_MOTION":15.27586993,"ECCENTRICITY":0.00023423,"INCLINATION":42.9943,"RA_OF_ASC_NODE":160.1054,"ARG_OF_PERICENTER":141.622,"MEAN_ANOMALY":218.4799,"EPHEMERIS_TYPE":0,"CLASSIFICATION_TYPE":"U","NORAD_CAT_ID":62749,"ELEMENT_SET_NO":999,"REV_AT_EPOCH":6315,"BSTAR":0.00094873529,"MEAN_MOTION_DOT":0.00025943,"MEAN_MOTION_DDOT":0}]
